ORBCOMM FM103           
1 40091U 14040F   24173.68030195  .00000779  00000+0  20988-3 0  9994
2 40091  47.0063 278.5425 0000953  45.6551 314.4412 14.56704292511514
ORBCOMM FM114           
1 41179U 15081A   24173.43787338  .00000827  00000+0  22022-3 0  9994
2 41179  47.0013 188.9365 0000594 169.2501 190.8397 14.56768619451843
ORBCOMM FM119           
1 41180U 15081B   24173.82162677  .00000835  00000+0  22254-3 0  9998
2 41180  47.0010  96.3315 0001434 220.6665 139.4113 14.56683309453159
ORBCOMM FM105           
1 41181U 15081C   24173.74028473  .00000422  00000+0  16663-3 0  9994
2 41181  47.0025  67.5036 0001443 160.0144 200.0793 14.44443720448628
ORBCOMM FM110           
1 41182U 15081D   24173.48388861  .00000800  00000+0  21437-3 0  9991
2 41182  47.0003 188.1266 0002933 301.9551  58.1048 14.56762602451729
ORBCOMM FM118           
1 41183U 15081E   24173.39301461  .00000520  00000+0  15241-3 0  9998
2 41183  47.0026 188.8733 0002989 299.5480  60.5107 14.56748430451811
ORBCOMM FM112           
1 41184U 15081F   24173.24939854  .00000941  00000+0  24607-3 0  9999
2 41184  46.9992  98.2299 0001222 188.9249 171.1614 14.56649750453017
ORBCOMM FM113           
1 41185U 15081G   24173.84397740  .00000971  00000+0  25275-3 0  9993
2 41185  47.0011  95.7025 0001166 214.5403 145.5407 14.56651838453088
